FLOCK 4H-34             
1 66737U 25276BZ  26195.75668389  .00003968  00000+0  18293-3 0  9997
2 66737  97.4234 269.1753 0002522 170.3651 189.7634 15.20834475 33875
FLOCK 4H-35             
1 66738U 25276CA  26195.73246078  .00003797  00000+0  17460-3 0  9998
2 66738  97.4192 269.0895 0002538 153.6008 206.5358 15.20951439 33918
FLOCK 4H-36             
1 66739U 25276CB  26195.77093256  .00003971  00000+0  18370-3 0  9996
2 66739  97.4242 269.1822 0002386 184.3205 175.8010 15.20715889 34626
