{"fetched_at":"2026-07-15T06:35:37.596Z","source":"https://celestrak.org/NORAD/elements/gp.php?GROUP=planet&FORMAT=JSON","constellation":"superdove","records":[{"OBJECT_NAME":"FLOCK 4H-34","OBJECT_ID":"2025-276BZ","EPOCH":"2026-07-14T18:09:37.488096","CLASSIFICATION_TYPE":"U","MEAN_MOTION":15.20834475,"ECCENTRICITY":0.00025222,"INCLINATION":97.4234,"RA_OF_ASC_NODE":269.1753,"ARG_OF_PERICENTER":170.3651,"MEAN_ANOMALY":189.7634,"EPHEMERIS_TYPE":0,"NORAD_CAT_ID":66737,"ELEMENT_SET_NO":999,"REV_AT_EPOCH":3387,"BSTAR":0.00018292539,"MEAN_MOTION_DOT":0.00003968,"MEAN_MOTION_DDOT":0},{"OBJECT_NAME":"FLOCK 4H-35","OBJECT_ID":"2025-276CA","EPOCH":"2026-07-14T17:34:44.611392","CLASSIFICATION_TYPE":"U","MEAN_MOTION":15.20951439,"ECCENTRICITY":0.00025381,"INCLINATION":97.4192,"RA_OF_ASC_NODE":269.0895,"ARG_OF_PERICENTER":153.6008,"MEAN_ANOMALY":206.5358,"EPHEMERIS_TYPE":0,"NORAD_CAT_ID":66738,"ELEMENT_SET_NO":999,"REV_AT_EPOCH":3391,"BSTAR":0.00017459634,"MEAN_MOTION_DOT":0.00003797,"MEAN_MOTION_DDOT":0},{"OBJECT_NAME":"FLOCK 4H-36","OBJECT_ID":"2025-276CB","EPOCH":"2026-07-14T18:30:08.573184","CLASSIFICATION_TYPE":"U","MEAN_MOTION":15.20715889,"ECCENTRICITY":0.00023865,"INCLINATION":97.4242,"RA_OF_ASC_NODE":269.1822,"ARG_OF_PERICENTER":184.3205,"MEAN_ANOMALY":175.801,"EPHEMERIS_TYPE":0,"NORAD_CAT_ID":66739,"ELEMENT_SET_NO":999,"REV_AT_EPOCH":3462,"BSTAR":0.00018370418,"MEAN_MOTION_DOT":0.00003971,"MEAN_MOTION_DDOT":0}]}
